ONEWEB-0603             
1 54667U 22166AB  24088.90125296  .00000129  00000+0  28201-3 0  9998
2 54667  87.9284  45.2491 0002390  77.0607 283.0793 13.21825272 64436
ONEWEB-0604             
1 54668U 22166AC  24088.96431075 -.00000285  00000+0 -72224-3 0  9999
2 54668  87.9276  45.2220 0001870  70.3208 289.8128 13.21825544 64408
ONEWEB-0605             
1 54669U 22166AD  24088.95801647  .00000089  00000+0  18397-3 0  9996
2 54669  87.9276  45.2568 0002645  83.3353 276.8082 13.21824635 64472
ONEWEB-0606             
1 54670U 22166AE  24088.90439244  .00000184  00000+0  41282-3 0  9998
2 54670  87.9281  45.2531 0001738  84.2333 275.8999 13.21828610 64529
ONEWEB-0607             
1 54671U 22166AF  24088.94696838  .00000047  00000+0  82388-4 0  9998
2 54671  87.9279  45.2251 0002241  76.8477 283.2907 13.21823341 64508
ONEWEB-0608             
1 54672U 22166AG  24088.95328096  .00000047  00000+0  81788-4 0  9991
2 54672  87.9285  45.2407 0002604  79.4128 280.7299 13.21824131 64519
ONEWEB-0610             
1 54673U 22166AH  24088.40449909  .00000003  00000+0 -23215-4 0  9993
2 54673  87.9279  45.3489 0002460  80.8855 279.2557 13.21824419 64347
ONEWEB-0611             
1 54674U 22166AJ  24088.92805767  .00000039  00000+0  61954-4 0  9999
2 54674  87.9278  45.2441 0001510  79.8561 280.2743 13.21827798 64400
